STARLINK-36560          
1 67585U 26016AA  26052.91668981 -.01820588  00000+0 -12981-1 0  9994
2 67585  97.2855 112.7120 0001490  82.8158 359.6317 15.76775426  5457
NAVSTAR 85 (USA 581)    
1 67588U 26017A   26052.52802993  .00000012  00000+0  00000+0 0  9994
2 67588  55.0109  93.3959 0001074  35.0050 325.0753  2.00561062429292
STARLINK-36641          
1 67589U 26018A   26053.11983236  .00222302  00000+0  14494-2 0  9995
2 67589  97.2838 118.1109 0000387  62.0352 298.0953 15.75243791  4858
STARLINK-36376          
1 67590U 26018B   26053.16535362  .00141621  00000+0  93403-3 0  9997
2 67590  97.2833 118.2016 0001544  55.5877 304.5534 15.75206244  4869
STARLINK-36391          
1 67591U 26018C   26053.14885318  .00317275  00000+0  15900-2 0  9990
2 67591  97.2820 118.2241 0001549 124.6994 235.4420 15.80921412  4862
STARLINK-36603          
1 67592U 26018D   26053.16111962  .00265299  00000+0  17187-2 0  9997
2 67592  97.2835 118.2076 0001495  84.0416 276.1020 15.75273340  4865
STARLINK-36634          
1 67593U 26018E   26053.25002314 -.00011527  00000+0 -76535-4 0  9997
2 67593  97.2847 118.3209 0001258  80.7055 107.2579 15.75184970  4860
STARLINK-36638          
1 67594U 26018F   26053.14584661  .00168960  00000+0  86459-3 0  9993
2 67594  97.2826 118.2293 0001915  87.9532 272.1955 15.80847237  4867
STARLINK-36628          
1 67595U 26018G   26053.10747039  .00327890  00000+0  21064-2 0  9999
2 67595  97.2841 118.1271 0001490  94.7668 265.3767 15.75294039  4858
STARLINK-36629          
1 67596U 26018H   26053.11523448  .00311437  00000+0  20052-2 0  9993
2 67596  97.2837 118.1163 0001173  79.1636 280.9761 15.75287570  4853
STARLINK-36384          
1 67597U 26018J   26053.14290046  .00212878  00000+0  10832-2 0  9996
2 67597  97.2822 118.2309 0001385  86.3263 273.8163 15.80857548  4864
STARLINK-36358          
1 67598U 26018K   26053.17276183  .00098722  00000+0  65466-3 0  9990
2 67598  97.2841 118.1908 0001930 100.0704 260.0779 15.75205407  4866
