CCSDS_OMM_VERS = 2.0
CREATION_DATE  = 
ORIGINATOR     = 

OBJECT_NAME    = STARLINK-36560
OBJECT_ID      = 2026-016AA
CENTER_NAME    = EARTH
REF_FRAME      = TEME
TIME_SYSTEM    = UTC
MEAN_ELEMENT_THEORY = SGP/SGP4

EPOCH          = 2026-02-21T22:00:01.999584
MEAN_MOTION    = 15.76775426
ECCENTRICITY   = .00014909
INCLINATION    = 97.2855
RA_OF_ASC_NODE = 112.7120
ARG_OF_PERICENTER = 82.8158
MEAN_ANOMALY   = 359.6317

EPHEMERIS_TYPE = 0
CLASSIFICATION_TYPE = U
NORAD_CAT_ID   = 67585
ELEMENT_SET_NO = 999
REV_AT_EPOCH   = 545
BSTAR          = -.1298069E-1
MEAN_MOTION_DOT = -.1820588E-1
MEAN_MOTION_DDOT = 0

CCSDS_OMM_VERS = 2.0
CREATION_DATE  = 
ORIGINATOR     = 

OBJECT_NAME    = NAVSTAR 85 (USA 581)
OBJECT_ID      = 2026-017A
CENTER_NAME    = EARTH
REF_FRAME      = TEME
TIME_SYSTEM    = UTC
MEAN_ELEMENT_THEORY = SGP/SGP4

EPOCH          = 2026-02-21T12:40:21.785952
MEAN_MOTION    = 2.00561062
ECCENTRICITY   = .0001074
INCLINATION    = 55.0109
RA_OF_ASC_NODE = 93.3959
ARG_OF_PERICENTER = 35.0050
MEAN_ANOMALY   = 325.0753

EPHEMERIS_TYPE = 0
CLASSIFICATION_TYPE = U
NORAD_CAT_ID   = 67588
ELEMENT_SET_NO = 999
REV_AT_EPOCH   = 42929
BSTAR          = 0
MEAN_MOTION_DOT = .12E-6
MEAN_MOTION_DDOT = 0

CCSDS_OMM_VERS = 2.0
CREATION_DATE  = 
ORIGINATOR     = 

OBJECT_NAME    = STARLINK-36641
OBJECT_ID      = 2026-018A
CENTER_NAME    = EARTH
REF_FRAME      = TEME
TIME_SYSTEM    = UTC
MEAN_ELEMENT_THEORY = SGP/SGP4

EPOCH          = 2026-02-22T02:52:33.515904
MEAN_MOTION    = 15.75243791
ECCENTRICITY   = .0000387
INCLINATION    = 97.2838
RA_OF_ASC_NODE = 118.1109
ARG_OF_PERICENTER = 62.0352
MEAN_ANOMALY   = 298.0953

EPHEMERIS_TYPE = 0
CLASSIFICATION_TYPE = U
NORAD_CAT_ID   = 67589
ELEMENT_SET_NO = 999
REV_AT_EPOCH   = 485
BSTAR          = .14494E-2
MEAN_MOTION_DOT = .222302E-2
MEAN_MOTION_DDOT = 0

CCSDS_OMM_VERS = 2.0
CREATION_DATE  = 
ORIGINATOR     = 

OBJECT_NAME    = STARLINK-36376
OBJECT_ID      = 2026-018B
CENTER_NAME    = EARTH
REF_FRAME      = TEME
TIME_SYSTEM    = UTC
MEAN_ELEMENT_THEORY = SGP/SGP4

EPOCH          = 2026-02-22T03:58:06.552768
MEAN_MOTION    = 15.75206244
ECCENTRICITY   = .0001544
INCLINATION    = 97.2833
RA_OF_ASC_NODE = 118.2016
ARG_OF_PERICENTER = 55.5877
MEAN_ANOMALY   = 304.5534

EPHEMERIS_TYPE = 0
CLASSIFICATION_TYPE = U
NORAD_CAT_ID   = 67590
ELEMENT_SET_NO = 999
REV_AT_EPOCH   = 486
BSTAR          = .93403E-3
MEAN_MOTION_DOT = .141621E-2
MEAN_MOTION_DDOT = 0

CCSDS_OMM_VERS = 2.0
CREATION_DATE  = 
ORIGINATOR     = 

OBJECT_NAME    = STARLINK-36391
OBJECT_ID      = 2026-018C
CENTER_NAME    = EARTH
REF_FRAME      = TEME
TIME_SYSTEM    = UTC
MEAN_ELEMENT_THEORY = SGP/SGP4

EPOCH          = 2026-02-22T03:34:20.914752
MEAN_MOTION    = 15.80921412
ECCENTRICITY   = .0001549
INCLINATION    = 97.2820
RA_OF_ASC_NODE = 118.2241
ARG_OF_PERICENTER = 124.6994
MEAN_ANOMALY   = 235.4420

EPHEMERIS_TYPE = 0
CLASSIFICATION_TYPE = U
NORAD_CAT_ID   = 67591
ELEMENT_SET_NO = 999
REV_AT_EPOCH   = 486
BSTAR          = .159E-2
MEAN_MOTION_DOT = .317275E-2
MEAN_MOTION_DDOT = 0

CCSDS_OMM_VERS = 2.0
CREATION_DATE  = 
ORIGINATOR     = 

OBJECT_NAME    = STARLINK-36603
OBJECT_ID      = 2026-018D
CENTER_NAME    = EARTH
REF_FRAME      = TEME
TIME_SYSTEM    = UTC
MEAN_ELEMENT_THEORY = SGP/SGP4

EPOCH          = 2026-02-22T03:52:00.735168
MEAN_MOTION    = 15.75273340
ECCENTRICITY   = .0001495
INCLINATION    = 97.2835
RA_OF_ASC_NODE = 118.2076
ARG_OF_PERICENTER = 84.0416
MEAN_ANOMALY   = 276.1020

EPHEMERIS_TYPE = 0
CLASSIFICATION_TYPE = U
NORAD_CAT_ID   = 67592
ELEMENT_SET_NO = 999
REV_AT_EPOCH   = 486
BSTAR          = .17187E-2
MEAN_MOTION_DOT = .265299E-2
MEAN_MOTION_DDOT = 0

CCSDS_OMM_VERS = 2.0
CREATION_DATE  = 
ORIGINATOR     = 

OBJECT_NAME    = STARLINK-36634
OBJECT_ID      = 2026-018E
CENTER_NAME    = EARTH
REF_FRAME      = TEME
TIME_SYSTEM    = UTC
MEAN_ELEMENT_THEORY = SGP/SGP4

EPOCH          = 2026-02-22T06:00:01.999296
MEAN_MOTION    = 15.75184970
ECCENTRICITY   = .0001258
INCLINATION    = 97.2847
RA_OF_ASC_NODE = 118.3209
ARG_OF_PERICENTER = 80.7055
MEAN_ANOMALY   = 107.2579

EPHEMERIS_TYPE = 0
CLASSIFICATION_TYPE = U
NORAD_CAT_ID   = 67593
ELEMENT_SET_NO = 999
REV_AT_EPOCH   = 486
BSTAR          = -.76535E-4
MEAN_MOTION_DOT = -.11527E-3
MEAN_MOTION_DDOT = 0

CCSDS_OMM_VERS = 2.0
CREATION_DATE  = 
ORIGINATOR     = 

OBJECT_NAME    = STARLINK-36638
OBJECT_ID      = 2026-018F
CENTER_NAME    = EARTH
REF_FRAME      = TEME
TIME_SYSTEM    = UTC
MEAN_ELEMENT_THEORY = SGP/SGP4

EPOCH          = 2026-02-22T03:30:01.147104
MEAN_MOTION    = 15.80847237
ECCENTRICITY   = .0001915
INCLINATION    = 97.2826
RA_OF_ASC_NODE = 118.2293
ARG_OF_PERICENTER = 87.9532
MEAN_ANOMALY   = 272.1955

EPHEMERIS_TYPE = 0
CLASSIFICATION_TYPE = U
NORAD_CAT_ID   = 67594
ELEMENT_SET_NO = 999
REV_AT_EPOCH   = 486
BSTAR          = .86459E-3
MEAN_MOTION_DOT = .16896E-2
MEAN_MOTION_DDOT = 0

CCSDS_OMM_VERS = 2.0
CREATION_DATE  = 
ORIGINATOR     = 

OBJECT_NAME    = STARLINK-36628
OBJECT_ID      = 2026-018G
CENTER_NAME    = EARTH
REF_FRAME      = TEME
TIME_SYSTEM    = UTC
MEAN_ELEMENT_THEORY = SGP/SGP4

EPOCH          = 2026-02-22T02:34:45.441696
MEAN_MOTION    = 15.75294039
ECCENTRICITY   = .000149
INCLINATION    = 97.2841
RA_OF_ASC_NODE = 118.1271
ARG_OF_PERICENTER = 94.7668
MEAN_ANOMALY   = 265.3767

EPHEMERIS_TYPE = 0
CLASSIFICATION_TYPE = U
NORAD_CAT_ID   = 67595
ELEMENT_SET_NO = 999
REV_AT_EPOCH   = 485
BSTAR          = .21064E-2
MEAN_MOTION_DOT = .32789E-2
MEAN_MOTION_DDOT = 0

CCSDS_OMM_VERS = 2.0
CREATION_DATE  = 
ORIGINATOR     = 

OBJECT_NAME    = STARLINK-36629
OBJECT_ID      = 2026-018H
CENTER_NAME    = EARTH
REF_FRAME      = TEME
TIME_SYSTEM    = UTC
MEAN_ELEMENT_THEORY = SGP/SGP4

EPOCH          = 2026-02-22T02:45:56.259072
MEAN_MOTION    = 15.75287570
ECCENTRICITY   = .0001173
INCLINATION    = 97.2837
RA_OF_ASC_NODE = 118.1163
ARG_OF_PERICENTER = 79.1636
MEAN_ANOMALY   = 280.9761

EPHEMERIS_TYPE = 0
CLASSIFICATION_TYPE = U
NORAD_CAT_ID   = 67596
ELEMENT_SET_NO = 999
REV_AT_EPOCH   = 485
BSTAR          = .20052E-2
MEAN_MOTION_DOT = .311437E-2
MEAN_MOTION_DDOT = 0

CCSDS_OMM_VERS = 2.0
CREATION_DATE  = 
ORIGINATOR     = 

OBJECT_NAME    = STARLINK-36384
OBJECT_ID      = 2026-018J
CENTER_NAME    = EARTH
REF_FRAME      = TEME
TIME_SYSTEM    = UTC
MEAN_ELEMENT_THEORY = SGP/SGP4

EPOCH          = 2026-02-22T03:25:46.599744
MEAN_MOTION    = 15.80857548
ECCENTRICITY   = .0001385
INCLINATION    = 97.2822
RA_OF_ASC_NODE = 118.2309
ARG_OF_PERICENTER = 86.3263
MEAN_ANOMALY   = 273.8163

EPHEMERIS_TYPE = 0
CLASSIFICATION_TYPE = U
NORAD_CAT_ID   = 67597
ELEMENT_SET_NO = 999
REV_AT_EPOCH   = 486
BSTAR          = .10832E-2
MEAN_MOTION_DOT = .212878E-2
MEAN_MOTION_DDOT = 0

CCSDS_OMM_VERS = 2.0
CREATION_DATE  = 
ORIGINATOR     = 

OBJECT_NAME    = STARLINK-36358
OBJECT_ID      = 2026-018K
CENTER_NAME    = EARTH
REF_FRAME      = TEME
TIME_SYSTEM    = UTC
MEAN_ELEMENT_THEORY = SGP/SGP4

EPOCH          = 2026-02-22T04:08:46.622112
MEAN_MOTION    = 15.75205407
ECCENTRICITY   = .000193
INCLINATION    = 97.2841
RA_OF_ASC_NODE = 118.1908
ARG_OF_PERICENTER = 100.0704
MEAN_ANOMALY   = 260.0779

EPHEMERIS_TYPE = 0
CLASSIFICATION_TYPE = U
NORAD_CAT_ID   = 67598
ELEMENT_SET_NO = 999
REV_AT_EPOCH   = 486
BSTAR          = .65466E-3
MEAN_MOTION_DOT = .98722E-3
MEAN_MOTION_DDOT = 0

